QIANFAN-33              
1 61566U 24185Q   25338.30641407  .00000689  00000+0  48893-3 0  9997
2 61566  88.9802  79.7466 0006627  10.3716 349.7597 13.96542069 67988
QIANFAN-34              
1 61567U 24185R   25338.30640840  .00000853  00000+0  54811-3 0  9998
2 61567  88.9780  79.3219 0005567  15.3506 344.7842 14.02295842 68172
QIANFAN-35              
1 61568U 24185S   25338.28844054  .00001762  00000+0  70559-3 0  9996
2 61568  88.9805  77.8702 0004984 328.6412  31.4484 14.27946128 68976
QIANFAN-36              
1 61569U 24185T   25338.32697481  .00000207  00000+0  27996-3 0  9992
2 61569  88.9786  81.9196 0007583  75.7666 284.4329 13.55583742 66781
QIANFAN-37              
1 62238U 24232B   25338.25288471  .00000206  00000+0  29999-3 0  9990
2 62238  89.0029  42.1856 0002644 109.9748 250.1689 13.50975859 98023
QIANFAN-38              
1 62239U 24232C   25338.27756578  .00000200  00000+0  29085-3 0  9991
2 62239  89.0035  42.0983 0013865 212.3612 147.6690 13.50978875 98086
QIANFAN-39              
1 62240U 24232D   25338.28026092  .00000939  00000+0  39178-3 0  9998
2 62240  89.0026  38.2765 0018467 105.7801 254.5430 14.25380317100187
QIANFAN-40              
1 62241U 24232E   25338.23641369  .00000210  00000+0  30681-3 0  9996
2 62241  89.0063  41.6846 0012638 220.3748 139.6466 13.50978572 98445
